{
  "type": "FeatureCollection",
  "features": [
    {
      "type": "Feature",
      "properties": {
        "norad_id": 41556,
        "name": "ZIYUAN 3-2 (ZY 3-2)",
        "group": "resource",
        "lat": -14.361621456908551,
        "lon": -119.36784636761277,
        "alt_km": 500.2263957925479,
        "timestamp": "2025-12-14T09:36:22.691858+00:00",
        "meta_object_name": "ZIYUAN 3-2 (ZY 3-2)",
        "meta_object_id": "2016-033A",
        "meta_epoch": "2025-12-13T16:58:11.774208",
        "meta_mean_motion": 15.21522618,
        "meta_eccentricity": 0.00125822,
        "meta_inclination": 97.4043,
        "meta_ra_of_asc_node": 61.8584,
        "meta_arg_of_pericenter": 245.3621,
        "meta_mean_anomaly": 114.6305,
        "meta_ephemeris_type": 0,
        "meta_classification_type": "U",
        "meta_norad_cat_id": 41556,
        "meta_element_set_no": 999,
        "meta_rev_at_epoch": 52978,
        "meta_bstar": 0.00040663339,
        "meta_mean_motion_dot": 9.109e-05,
        "meta_mean_motion_ddot": 0,
        "tle_line1": "1 41556U 16033A   25347.70708072  .00009109  00000+0  40663-3 0  9996",
        "tle_line2": "2 41556  97.4043  61.8584 0012582 245.3621 114.6305 15.21522618529787"
      },
      "geometry": {
        "type": "Point",
        "coordinates": [
          -119.36784636761277,
          -14.361621456908551
        ]
      }
    },
    {
      "type": "Feature",
      "properties": {
        "norad_id": 41599,
        "name": "CARTOSAT-2C",
        "group": "resource",
        "lat": 53.91918480558884,
        "lon": -123.9835233350477,
        "alt_km": 499.8179067979654,
        "timestamp": "2025-12-14T09:36:22.691868+00:00",
        "meta_object_name": "CARTOSAT-2C",
        "meta_object_id": "2016-040A",
        "meta_epoch": "2025-12-13T15:40:12.842688",
        "meta_mean_motion": 15.19313234,
        "meta_eccentricity": 0.00107719,
        "meta_inclination": 97.4763,
        "meta_ra_of_asc_node": 44.8944,
        "meta_arg_of_pericenter": 61.8213,
        "meta_mean_anomaly": 298.4108,
        "meta_ephemeris_type": 0,
        "meta_classification_type": "U",
        "meta_norad_cat_id": 41599,
        "meta_element_set_no": 999,
        "meta_rev_at_epoch": 52554,
        "meta_bstar": 0.00045614098,
        "meta_mean_motion_dot": 9.582e-05,
        "meta_mean_motion_ddot": 0,
        "tle_line1": "1 41599U 16040A   25347.65292642  .00009582  00000+0  45614-3 0  9992",
        "tle_line2": "2 41599  97.4763  44.8944 0010771  61.8213 298.4108 15.19313234525541"
      },
      "geometry": {
        "type": "Point",
        "coordinates": [
          -123.9835233350477,
          53.91918480558884
        ]
      }
    },
    {
      "type": "Feature",
      "properties": {
        "norad_id": 41601,
        "name": "SKYSAT-C1",
        "group": "resource",
        "lat": -77.58895560607758,
        "lon": 171.47515237030905,
        "alt_km": 475.8863263751309,
        "timestamp": "2025-12-14T09:36:22.691878+00:00",
        "meta_object_name": "SKYSAT-C1",
        "meta_object_id": "2016-040C",
        "meta_epoch": "2025-12-13T15:14:23.179200",
        "meta_mean_motion": 15.32613169,
        "meta_eccentricity": 0.00022761,
        "meta_inclination": 96.9828,
        "meta_ra_of_asc_node": 24.5981,
        "meta_arg_of_pericenter": 13.2546,
        "meta_mean_anomaly": 346.8756,
        "meta_ephemeris_type": 0,
        "meta_classification_type": "U",
        "meta_norad_cat_id": 41601,
        "meta_element_set_no": 999,
        "meta_rev_at_epoch": 52941,
        "meta_bstar": 0.00035697669,
        "meta_mean_motion_dot": 0.00011175,
        "meta_mean_motion_ddot": 0,
        "tle_line1": "1 41601U 16040C   25347.63499050  .00011175  00000+0  35698-3 0  9998",
        "tle_line2": "2 41601  96.9828  24.5981 0002276  13.2546 346.8756 15.32613169529410"
      },
      "geometry": {
        "type": "Point",
        "coordinates": [
          171.47515237030905,
          -77.58895560607758
        ]
      }
    },
    {
      "type": "Feature",
      "properties": {
        "norad_id": 41603,
        "name": "LAPAN-A3",
        "group": "resource",
        "lat": 36.89184225322949,
        "lon": -19.50505982765578,
        "alt_km": 466.31372866879065,
        "timestamp": "2025-12-14T09:36:22.691888+00:00",
        "meta_object_name": "LAPAN-A3",
        "meta_object_id": "2016-040E",
        "meta_epoch": "2025-12-13T16:11:45.730176",
        "meta_mean_motion": 15.31562287,
        "meta_eccentricity": 0.00095159,
        "meta_inclination": 97.1431,
        "meta_ra_of_asc_node": 345.1971,
        "meta_arg_of_pericenter": 330.3251,
        "meta_mean_anomaly": 29.745,
        "meta_ephemeris_type": 0,
        "meta_classification_type": "U",
        "meta_norad_cat_id": 41603,
        "meta_element_set_no": 999,
        "meta_rev_at_epoch": 52640,
        "meta_bstar": 0.00018994985,
        "meta_mean_motion_dot": 5.722e-05,
        "meta_mean_motion_ddot": 0,
        "tle_line1": "1 41603U 16040E   25347.67483484  .00005722  00000+0  18995-3 0  9990",
        "tle_line2": "2 41603  97.1431 345.1971 0009515 330.3251  29.7450 15.31562287526402"
      },
      "geometry": {
        "type": "Point",
        "coordinates": [
          -19.50505982765578,
          36.89184225322949
        ]
      }
    },
    {
      "type": "Feature",
      "properties": {
        "norad_id": 41604,
        "name": "BIROS",
        "group": "resource",
        "lat": -29.601560115944068,
        "lon": -164.14164660555807,
        "alt_km": 306.08688663210705,
        "timestamp": "2025-12-14T09:36:22.691898+00:00",
        "meta_object_name": "BIROS",
        "meta_object_id": "2016-040F",
        "meta_epoch": "2025-12-13T14:36:18.084960",
        "meta_mean_motion": 15.90136506,
        "meta_eccentricity": 0.00035025,
        "meta_inclination": 97.0682,
        "meta_ra_of_asc_node": 19.0764,
        "meta_arg_of_pericenter": 146.2595,
        "meta_mean_anomaly": 213.8902,
        "meta_ephemeris_type": 0,
        "meta_classification_type": "U",
        "meta_norad_cat_id": 41604,
        "meta_element_set_no": 999,
        "meta_rev_at_epoch": 52886,
        "meta_bstar": 0.00066760898,
        "meta_mean_motion_dot": 0.00199314,
        "meta_mean_motion_ddot": 1.6332253e-05,
        "tle_line1": "1 41604U 16040F   25347.60854265  .00199314  16332-4  66761-3 0  9998",
        "tle_line2": "2 41604  97.0682  19.0764 0003502 146.2595 213.8902 15.90136506528868"
      },
      "geometry": {
        "type": "Point",
        "coordinates": [
          -164.14164660555807,
          -29.601560115944068
        ]
      }
    },
    {
      "type": "Feature",
      "properties": {
        "norad_id": 41727,
        "name": "GAOFEN-3",
        "group": "resource",
        "lat": 1.189690059491079,
        "lon": -6.214536110776941,
        "alt_km": 753.4631169994127,
        "timestamp": "2025-12-14T09:36:22.691908+00:00",
        "meta_object_name": "GAOFEN-3",
        "meta_object_id": "2016-049A",
        "meta_epoch": "2025-12-13T15:17:05.725248",
        "meta_mean_motion": 14.42213695,
        "meta_eccentricity": 0.0001401,
        "meta_inclination": 98.4044,
        "meta_ra_of_asc_node": 353.2096,
        "meta_arg_of_pericenter": 61.734,
        "meta_mean_anomaly": 298.3991,
        "meta_ephemeris_type": 0,
        "meta_classification_type": "U",
        "meta_norad_cat_id": 41727,
        "meta_element_set_no": 999,
        "meta_rev_at_epoch": 49190,
        "meta_bstar": 3.9312823e-05,
        "meta_mean_motion_dot": 8.6e-07,
        "meta_mean_motion_ddot": 0,
        "tle_line1": "1 41727U 16049A   25347.63687182  .00000086  00000+0  39313-4 0  9999",
        "tle_line2": "2 41727  98.4044 353.2096 0001401  61.7340 298.3991 14.42213695491908"
      },
      "geometry": {
        "type": "Point",
        "coordinates": [
          -6.214536110776941,
          1.189690059491079
        ]
      }
    },
    {
      "type": "Feature",
      "properties": {
        "norad_id": 41771,
        "name": "SKYSAT-C4",
        "group": "resource",
        "lat": -71.38976237056134,
        "lon": 172.30661630657252,
        "alt_km": 447.20094298369986,
        "timestamp": "2025-12-14T09:36:22.691918+00:00",
        "meta_object_name": "SKYSAT-C4",
        "meta_object_id": "2016-058B",
        "meta_epoch": "2025-12-13T15:23:07.950336",
        "meta_mean_motion": 15.42283665,
        "meta_eccentricity": 0.00016492,
        "meta_inclination": 96.9382,
        "meta_ra_of_asc_node": 12.7849,
        "meta_arg_of_pericenter": 134.7935,
        "meta_mean_anomaly": 225.3447,
        "meta_ephemeris_type": 0,
        "meta_classification_type": "U",
        "meta_norad_cat_id": 41771,
        "meta_element_set_no": 999,
        "meta_rev_at_epoch": 51681,
        "meta_bstar": 0.00037986317,
        "meta_mean_motion_dot": 0.00016279,
        "meta_mean_motion_ddot": 0,
        "tle_line1": "1 41771U 16058B   25347.64106424  .00016279  00000+0  37986-3 0  9998",
        "tle_line2": "2 41771  96.9382  12.7849 0001649 134.7935 225.3447 15.42283665516812"
      },
      "geometry": {
        "type": "Point",
        "coordinates": [
          172.30661630657252,
          -71.38976237056134
        ]
      }
    }
  ]
}